{
  "norad_id": 59675,
  "name": "STARLINK-31877",
  "history": [
    {
      "epoch": "2026-03-28T20:38:33.837504Z",
      "apogee_km": 483.7267068227975,
      "perigee_km": 482.3653108901808,
      "latitude_deg": -1.2573412950268012e-05,
      "longitude_deg": 157.73069417604748,
      "height_km": 482.8660251174711,
      "semi_major_axis_km": 6861.183008856489,
      "eccentricity": 9.921e-05,
      "inclination_deg": 43.0021,
      "raan_deg": 293.6462,
      "arg_perigee_deg": 266.3414,
      "mean_anomaly_deg": 93.7324,
      "mean_motion_rev_day": 15.27581031
    },
    {
      "epoch": "2026-03-28T23:46:52.508064Z",
      "apogee_km": 483.6874732629658,
      "perigee_km": 482.4016878347711,
      "latitude_deg": 2.5109759049447094e-06,
      "longitude_deg": 109.78442179070761,
      "height_km": 482.8946821576827,
      "semi_major_axis_km": 6861.181580548868,
      "eccentricity": 9.37e-05,
      "inclination_deg": 43.0011,
      "raan_deg": 292.9066,
      "arg_perigee_deg": 263.418,
      "mean_anomaly_deg": 96.6565,
      "mean_motion_rev_day": 15.27581508
    }
  ]
}